NORAD_CAT_ID,OBJECT_NAME,OBJECT_TYPE,EPOCH,MEAN_MOTION,ECCENTRICITY,INCLINATION,RA_OF_ASC_NODE,ARG_OF_PERICENTER,MEAN_ANOMALY,BSTAR,MEAN_MOTION_DOT,MEAN_MOTION_DDOT,TLE_LINE0,TLE_LINE1,TLE_LINE2,SEMIMAJOR_AXIS,PERIOD,APOGEE,PERIGEE,DECAYED
55957.0,STARLINK-5884,PAYLOAD,2023-06-10 09:37:22,15.69928971,0.0003777,69.9986,303.106,271.2136,88.8627,1.5838e-05,1.692e-05,0.0,0 STARLINK-5884,1 55957U 23037AV  23161.40095516  .00001692  00000-0  15838-4 0  9996,2 55957  69.9986 303.1060 0003777 271.2136  88.8627 15.69928971 13470,6737.237,91.724,361.647,356.558,0.0
55957.0,STARLINK-5884,PAYLOAD,2023-06-10 14:12:37,15.69928254,0.0003795,69.9989,302.5691,271.5077,88.5684,1.3501e-05,1.411e-05,0.0,0 STARLINK-5884,1 55957U 23037AV  23161.59210527  .00001411  00000-0  13501-4 0  9991,2 55957  69.9989 302.5691 0003795 271.5077  88.5684 15.69928254 13848,6737.239,91.724,361.661,356.547,0.0
55957.0,STARLINK-5884,PAYLOAD,2023-06-11 02:26:39,15.69921752,0.0003729,69.9989,301.1358,273.3592,86.7177,9.3398e-06,9.1e-06,0.0,0 STARLINK-5884,1 55957U 23037AV  23162.10184252  .00000910  00000-0  93398-5 0  9990,2 55957  69.9989 301.1358 0003729 273.3592  86.7177 15.69921752 13924,6737.258,91.724,361.635,356.611,0.0
55957.0,STARLINK-5884,PAYLOAD,2023-06-11 13:08:54,15.69929555,0.0003658,69.9971,299.8822,271.0575,89.0202,2.0164e-05,2.213e-05,0.0,0 STARLINK-5884,1 55957U 23037AV  23162.54785484  .00002213  00000-0  20164-4 0  9990,2 55957  69.9971 299.8822 0003658 271.0575  89.0202 15.69929555 13655,6737.236,91.724,361.565,356.636,0.0
55957.0,STARLINK-5884,PAYLOAD,2023-06-11 19:15:55,15.69928084,0.0003604,69.9973,299.1652,271.8566,88.2217,1.8404e-05,2.001e-05,0.0,0 STARLINK-5884,1 55957U 23037AV  23162.80272294  .00002001  00000-0  18404-4 0  9998,2 55957  69.9973 299.1652 0003604 271.8566  88.2217 15.69928084 13697,6737.24,91.724,361.533,356.677,0.0
55957.0,STARLINK-5884,PAYLOAD,2023-06-12 15:08:42,15.69920274,0.0003629,69.9989,296.8366,271.4985,88.5795,-3.4776e-06,-6.31e-06,0.0,0 STARLINK-5884,1 55957U 23037AV  23163.63104457 -.00000631  00000-0 -34776-5 0  9995,2 55957  69.9989 296.8366 0003629 271.4985  88.5795 15.69920274 14168,6737.262,91.724,361.572,356.682,0.0
55957.0,STARLINK-5884,PAYLOAD,2023-06-13 12:33:14,15.69909477,0.0003461,69.9975,294.3277,266.5834,93.4966,3.4821e-05,3.974e-05,0.0,0 STARLINK-5884,1 55957U 23037AV  23164.52308460  .00003974  00000-0  34821-4 0  9995,2 55957  69.9975 294.3277 0003461 266.5834  93.4966 15.69909477 13963,6737.293,91.725,361.49,356.826,0.0
55957.0,STARLINK-5884,PAYLOAD,2023-06-13 18:40:13,15.69934533,0.0003487,69.9979,293.6114,267.5761,92.5035,9.654e-06,9.49e-06,0.0,0 STARLINK-5884,1 55957U 23037AV  23164.77793862  .00000949  00000-0  96540-5 0  9992,2 55957  69.9979 293.6114 0003487 267.5761  92.5035 15.69934533 14348,6737.221,91.724,361.436,356.737,0.0
55957.0,STARLINK-5884,PAYLOAD,2023-06-14 02:18:59,15.69922669,0.0003621,69.9979,292.7162,268.3604,91.7177,1.497e-05,1.587e-05,0.0,0 STARLINK-5884,1 55957U 23037AV  23165.09652750  .00001587  00000-0  14970-4 0  9993,2 55957  69.9979 292.7162 0003621 268.3604  91.7177 15.69922669 14396,6737.255,91.724,361.56,356.681,0.0
55957.0,STARLINK-5884,PAYLOAD,2023-06-14 08:26:01,15.69915314,0.0003731,69.9985,292.0014,271.9434,88.1335,1.4553e-06,-3.8e-07,0.0,0 STARLINK-5884,1 55957U 23037AV  23165.35140231 -.00000038  00000-0  14553-5 0  9997,2 55957  69.9985 292.0014 0003731 271.9434  88.1335 15.69915314 14435,6737.276,91.725,361.655,356.628,0.0
55957.0,STARLINK-5884,PAYLOAD,2023-06-15 10:25:47,15.69922122,0.0003405,69.999,288.954,273.3383,86.7423,1.4753e-05,1.561e-05,0.0,0 STARLINK-5884,1 55957U 23037AV  23166.43458125  .00001561  00000-0  14753-4 0  9993,2 55957  69.9990 288.9540 0003405 273.3383  86.7423 15.69922122 14602,6737.257,91.724,361.416,356.828,0.0
55957.0,STARLINK-5884,PAYLOAD,2023-06-15 11:57:32,15.69923487,0.0003458,69.9986,288.7748,270.5035,89.5765,1.456e-05,1.538e-05,0.0,0 STARLINK-5884,1 55957U 23037AV  23166.49829726  .00001538  00000-0  14560-4 0  9998,2 55957  69.9986 288.7748 0003458 270.5035  89.5765 15.69923487 14274,6737.253,91.724,361.448,356.788,0.0
55957.0,STARLINK-5884,PAYLOAD,2023-06-15 18:04:33,15.69917233,0.0003235,69.9989,288.0586,280.1421,79.9409,6.8079e-06,6.06e-06,0.0,0 STARLINK-5884,1 55957U 23037AV  23166.75317037  .00000606  00000-0  68079-5 0  9994,2 55957  69.9989 288.0586 0003235 280.1421  79.9409 15.69917233 14651,6737.271,91.725,361.315,356.956,0.0
55957.0,STARLINK-5884,PAYLOAD,2023-06-16 01:43:18,15.69925632,0.0003721,69.9983,287.1616,268.2681,91.8088,1.0048e-05,9.95e-06,0.0,0 STARLINK-5884,1 55957U 23037AV  23167.07174477  .00000995  00000-0  10048-4 0  9992,2 55957  69.9983 287.1616 0003721 268.2681  91.8088 15.69925632 14708,6737.247,91.724,361.619,356.605,0.0
55957.0,STARLINK-5884,PAYLOAD,2023-06-16 09:22:03,15.69937421,0.0003653,69.998,286.2671,270.162,89.9157,5.6893e-06,4.72e-06,0.0,0 STARLINK-5884,1 55957U 23037AV  23167.39032131  .00000472  00000-0  56893-5 0  9996,2 55957  69.9980 286.2671 0003653 270.1620  89.9157 15.69937421 14754,6737.213,91.723,361.539,356.617,0.0
55957.0,STARLINK-5884,PAYLOAD,2023-06-16 13:57:19,15.69935392,0.0003656,69.9979,285.7301,271.1902,88.8875,8.8611e-06,8.53e-06,0.0,0 STARLINK-5884,1 55957U 23037AV  23167.58147162  .00000853  00000-0  88611-5 0  9994,2 55957  69.9979 285.7301 0003656 271.1902  88.8875 15.69935392 14449,6737.219,91.724,361.547,356.621,0.0
55957.0,STARLINK-5884,PAYLOAD,2023-06-16 17:00:49,15.69927834,0.0003764,69.9985,285.3725,269.97,90.1064,1.4548e-05,1.537e-05,0.0,0 STARLINK-5884,1 55957U 23037AV  23167.70890939  .00001537  00000-0  14548-4 0  9992,2 55957  69.9985 285.3725 0003764 269.9700  90.1064 15.69927834 14463,6737.24,91.724,361.641,356.57,0.0
55957.0,STARLINK-5884,PAYLOAD,2023-06-17 06:46:37,15.69912088,0.0003345,69.9991,283.7593,274.2264,85.855,-5.0995e-06,-8.26e-06,0.0,0 STARLINK-5884,1 55957U 23037AV  23168.28237718 -.00000826  00000-0 -50995-5 0  9995,2 55957  69.9991 283.7593 0003345 274.2264  85.8550 15.69912088 14897,6737.286,91.725,361.404,356.897,0.0
55957.0,STARLINK-5884,PAYLOAD,2023-06-17 11:21:52,15.6991309,0.0003399,69.999,283.2215,274.7934,85.2874,-3.5605e-06,-6.41e-06,0.0,0 STARLINK-5884,1 55957U 23037AV  23168.47352767 -.00000641  00000-0 -35605-5 0  9994,2 55957  69.9990 283.2215 0003399 274.7934  85.2874 15.69913090 14583,6737.283,91.725,361.438,356.858,0.0
55957.0,STARLINK-5884,PAYLOAD,2023-06-17 17:28:52,15.69928765,0.0003575,70.0003,282.5044,272.4612,87.6174,1.5017e-05,1.594e-05,0.0,0 STARLINK-5884,1 55957U 23037AV  23168.72838071  .00001594  00000-0  15017-4 0  9999,2 55957  70.0003 282.5044 0003575 272.4612  87.6174 15.69928765 14963,6737.238,91.724,361.511,356.694,0.0
55957.0,STARLINK-5884,PAYLOAD,2023-06-18 01:07:37,15.69928472,0.0003591,70.0,281.6093,271.2659,88.8125,2.0189e-05,2.216e-05,0.0,0 STARLINK-5884,1 55957U 23037AV  23169.04696393  .00002216  00000-0  20189-4 0  9992,2 55957  70.0000 281.6093 0003591 271.2659  88.8125 15.69928472 14672,6737.239,91.724,361.523,356.684,0.0
55957.0,STARLINK-5884,PAYLOAD,2023-06-18 14:53:23,15.69929638,0.0003313,69.999,279.9977,269.388,90.6936,1.3066e-05,1.359e-05,0.0,0 STARLINK-5884,1 55957U 23037AV  23169.62041330  .00001359  00000-0  13066-4 0  9994,2 55957  69.9990 279.9977 0003313 269.3880  90.6936 15.69929638 15109,6737.235,91.724,361.332,356.868,0.0
55957.0,STARLINK-5884,PAYLOAD,2023-06-18 22:00:00,15.69962713,0.0003501,70.0007,279.1633,270.2118,323.7485,-0.00084313,-0.00100552,0.0,0 STARLINK-5884,1 55957U 23037AV  23169.91667824 -.00100552  00000-0 -84313-3 0  9997,2 55957  70.0007 279.1633 0003501 270.2118 323.7485 15.69962713 15140,6737.141,91.722,361.364,356.647,0.0
55957.0,STARLINK-5884,PAYLOAD,2023-06-19 06:10:55,15.69920931,0.0003067,69.9995,278.2069,272.2336,87.8508,2.583e-05,2.894e-05,0.0,0 STARLINK-5884,1 55957U 23037AV  23170.25758568  .00002894  00000-0  25830-4 0  9990,2 55957  69.9995 278.2069 0003067 272.2336  87.8508 15.69920931 15204,6737.26,91.724,361.192,357.059,0.0
55957.0,STARLINK-5884,PAYLOAD,2023-06-19 13:49:40,15.69924848,0.0003568,69.9983,277.3089,268.5975,91.4812,2.2173e-05,2.454e-05,0.0,0 STARLINK-5884,1 55957U 23037AV  23170.57616760  .00002454  00000-0  22173-4 0  9991,2 55957  69.9983 277.3089 0003568 268.5975  91.4812 15.69924848 14913,6737.249,91.724,361.518,356.71,0.0
55957.0,STARLINK-5884,PAYLOAD,2023-06-20 00:31:56,15.69942401,0.0004319,69.9971,276.0565,267.8515,92.2186,-2.0033e-05,-2.624e-05,0.0,0 STARLINK-5884,1 55957U 23037AV  23171.02217812 -.00002624  00000-0 -20033-4 0  9991,2 55957  69.9971 276.0565 0004319 267.8515  92.2186 15.69942401 15326,6737.199,91.723,361.974,356.154,0.0
55957.0,STARLINK-5884,PAYLOAD,2023-06-20 06:38:57,15.69923725,0.0003614,69.9993,275.3404,270.1986,89.8795,4.1911e-06,2.91e-06,0.0,0 STARLINK-5884,1 55957U 23037AV  23171.27705548  .00000291  00000-0  41911-5 0  9991,2 55957  69.9993 275.3404 0003614 270.1986  89.8795 15.69923725 15360,6737.252,91.724,361.552,356.682,0.0
55957.0,STARLINK-5884,PAYLOAD,2023-06-20 17:21:12,15.69932361,0.0003452,69.999,274.0889,267.6176,92.4624,6.0507e-06,5.15e-06,0.0,0 STARLINK-5884,1 55957U 23037AV  23171.72306524  .00000515  00000-0  60507-5 0  9993,2 55957  69.9990 274.0889 0003452 267.6176  92.4624 15.69932361 15437,6737.228,91.724,361.418,356.767,0.0
55957.0,STARLINK-5884,PAYLOAD,2023-06-21 10:10:30,15.69916923,0.0003552,69.9995,272.1168,273.7201,86.3588,1.3147e-05,1.368e-05,0.0,0 STARLINK-5884,1 55957U 23037AV  23172.42395840  .00001368  00000-0  13147-4 0  9994,2 55957  69.9995 272.1168 0003552 273.7201  86.3588 15.69916923 15548,6737.272,91.725,361.53,356.744,0.0
55957.0,STARLINK-5884,PAYLOAD,2023-06-21 16:17:30,15.69925375,0.0003369,69.9971,271.3965,269.9915,90.0894,1.6108e-05,1.725e-05,0.0,0 STARLINK-5884,1 55957U 23037AV  23172.67881968  .00001725  00000-0  16108-4 0  9999,2 55957  69.9971 271.3965 0003369 269.9915  90.0894 15.69925375 15580,6737.248,91.724,361.382,356.843,0.0
